OBJECT_NAME,OBJECT_ID,EPOCH,MEAN_MOTION,ECCENTRICITY,INCLINATION,RA_OF_ASC_NODE,ARG_OF_PERICENTER,MEAN_ANOMALY,EPHEMERIS_TYPE,CLASSIFICATION_TYPE,NORAD_CAT_ID,ELEMENT_SET_NO,REV_AT_EPOCH,BSTAR,MEAN_MOTION_DOT,MEAN_MOTION_DDOT
BEIDOU-3S IGSO-1S (C31),2015-019A,2026-07-02T19:12:21.705408,1.00680073,.00768606,49.1798,295.2769,219.1125,144.2493,0,U,40549,999,4123,0,-.19E-5,0
GPS BIIF-10 (PRN 08),2015-033A,2026-07-04T16:07:37.677504,2.00555354,.01152136,53.9691,266.3653,30.2668,330.4655,0,U,40730,999,8034,0,-.8E-7,0
BEIDOU-3S M2S (C58),2015-037A,2026-07-05T13:54:42.916032,1.86232493,.00091468,54.8530,301.4135,257.7205,102.2021,0,U,40748,999,7446,0,-.59E-6,0
BEIDOU-3S M1S (C57),2015-037B,2026-07-04T04:10:48.257760,1.86254939,.0002995,54.8513,301.4491,63.1742,296.8797,0,U,40749,999,7444,0,-.58E-6,0
GSAT0206 (GALILEO 10),2015-045B,2026-07-03T21:09:31.262976,1.70473649,.0001957,54.9411,221.1433,327.0241,33.0412,0,U,40890,999,6732,0,.74E-6,0
BEIDOU-3S IGSO-2S (C56),2015-053A,2026-07-04T20:28:22.719072,1.00255661,.00657379,49.1939,258.5724,193.1388,232.3570,0,U,40938,999,3953,0,-.105E-5,0
GPS BIIF-11 (PRN 10),2015-062A,2026-07-05T05:25:14.284128,2.00567031,.01124564,56.9715,30.1167,230.9379,128.1075,0,U,41019,999,7819,0,-.55E-6,0
GSAT-15 (GAGAN/PRN 139),2015-065A,2026-07-05T10:51:51.327360,1.00271798,.00041013,0.0374,242.1269,203.6299,94.1478,0,U,41028,999,3898,0,-.244E-5,0
GSAT0209 (GALILEO 12),2015-079A,2026-07-04T15:16:27.577056,1.70473787,.00050673,55.8369,100.7834,348.6925,11.3144,0,U,41174,999,6507,0,0,0
GSAT0208 (GALILEO 11),2015-079B,2026-07-01T22:10:17.474304,1.70473736,.0004614,55.8336,100.8547,354.4374,5.5610,0,U,41175,999,6544,0,-.13E-6,0
IRNSS-1E,2016-003A,2026-06-29T19:51:21.425184,1.00272765,.00192006,33.2608,59.5670,178.7998,89.1855,0,U,41241,999,3820,0,-.31E-5,0
GPS BIIF-12 (PRN 32),2016-007A,2026-07-05T07:37:28.254432,2.00576020,.00966801,55.5338,88.7408,247.6311,111.3824,0,U,41328,999,7620,0,-.9E-7,0
COSMOS 2514 (751),2016-008A,2026-07-05T14:04:18.823008,2.13102617,.00119802,65.0096,312.3755,200.0780,159.8882,0,U,41330,999,8101,0,-.44E-6,0
BEIDOU-2 IGSO-6 (C13),2016-021A,2026-06-26T02:38:38.671584,1.00258926,.0057558,60.2385,37.9495,231.0163,137.2672,0,U,41434,999,3757,0,-.145E-5,0
IRNSS-1G,2016-027A,2026-07-05T12:44:48.703200,1.00278117,.00058166,5.2398,97.0522,7.4920,139.7864,0,U,41469,999,3736,0,-.322E-5,0
GSAT0211 (GALILEO 14),2016-030A,2026-07-04T09:27:13.569984,1.70473887,.000312,55.0914,221.2214,320.4697,39.5831,0,U,41549,999,6296,0,.74E-6,0
GSAT0210 (GALILEO 13),2016-030B,2026-07-03T11:28:19.668288,1.70473811,.000896,55.0896,221.2446,258.8551,101.1239,0,U,41550,999,6294,0,.74E-6,0
BEIDOU-2 G7 (C03),2016-037A,2026-07-05T15:19:44.011776,1.00267673,.00066312,1.7629,69.4535,5.1729,189.4425,0,U,41586,999,707,0,-.34E-5,0
EUTELSAT 117 WEST B (WAAS/PRN 131),2016-038B,2026-07-05T09:51:47.253312,1.00270292,.00001761,0.0083,160.0969,18.6082,135.6412,0,U,41589,999,3684,0,.2E-7,0
GSAT0207 (GALILEO 15),2016-069A,2026-06-26T17:13:02.065728,1.70473700,.00050068,55.5042,100.8225,333.0982,26.8500,0,U,41859,999,5956,0,-.38E-6,0
GSAT0212 (GALILEO 16),2016-069B,2026-07-04T18:47:36.676032,1.70473848,.00044488,55.5064,100.5945,2.8841,357.1371,0,U,41860,999,5995,0,0,0
GSAT0213 (GALILEO 17),2016-069C,2026-06-28T02:40:06.685536,1.70474290,.00045371,55.5047,100.7870,315.9585,43.9839,0,U,41861,999,5970,0,-.34E-6,0
GSAT0214 (GALILEO 18),2016-069D,2026-07-05T07:06:58.791456,1.70473861,.00036708,55.5073,100.5810,327.9107,32.0866,0,U,41862,999,5995,0,0,0
SES-15 (WAAS/PRN 133),2017-026A,2026-07-05T09:48:17.588160,1.00273257,.00010259,0.0235,326.5081,175.8298,158.9945,0,U,42709,999,761,0,.73E-6,0
QZS-2 (QZSS/PRN 194),2017-028A,2026-07-05T10:34:23.894112,1.00279241,.07583973,39.3999,242.8847,269.4808,71.9203,0,U,42738,999,780,0,-.105E-5,0
QZS-3 (QZSS/PRN 199),2017-048A,2026-07-05T12:44:03.775200,1.00267041,.00020785,0.0799,130.0016,334.4076,137.1144,0,U,42917,999,3244,0,-.335E-5,0
COSMOS 2522 (752),2017-055A,2026-07-05T10:10:34.348224,2.13102028,.00109263,64.0803,191.2636,240.7321,119.1846,0,U,42939,999,6836,0,.103E-5,0
QZS-4 (QZSS/PRN 195),2017-062A,2026-07-05T07:36:43.259040,1.00293782,.074705,40.0986,343.2563,268.3572,284.3863,0,U,42965,999,3198,0,-.308E-5,0
BEIDOU-3 M1 (C19),2017-069A,2026-07-03T05:48:06.731712,1.86231596,.000968,56.7055,62.5561,326.7179,33.2911,0,U,43001,999,5890,0,-.36E-6,0
BEIDOU-3 M2 (C20),2017-069B,2026-07-05T07:52:49.935936,1.86231044,.00085992,56.7067,62.5232,354.4335,5.6244,0,U,43002,999,5893,0,-.37E-6,0
GSAT0215 (GALILEO 19),2017-079A,2026-07-04T14:42:42.307488,1.70474500,.00035499,55.0696,221.0270,263.9168,96.1170,0,U,43055,999,5328,0,.74E-6,0
